[{"OBJECT_NAME":"STARLINK-31579","OBJECT_ID":"2024-050P","EPOCH":"2026-03-09T14:23:57.314688","MEAN_MOTION":15.30195118,"ECCENTRICITY":0.0001119,"INCLINATION":53.1605,"RA_OF_ASC_NODE":181.4925,"ARG_OF_PERICENTER":76.2634,"MEAN_ANOMALY":283.8492,"EPHEMERIS_TYPE":0,"CLASSIFICATION_TYPE":"U","NORAD_CAT_ID":59267,"ELEMENT_SET_NO":999,"REV_AT_EPOCH":11053,"BSTAR":-4.9165e-6,"MEAN_MOTION_DOT":-5.05e-6,"MEAN_MOTION_DDOT":0},{"OBJECT_NAME":"KUIPER-00175","OBJECT_ID":"2025-301C","EPOCH":"2026-03-09T23:30:37.840032","MEAN_MOTION":15.30996371,"ECCENTRICITY":0.00022792,"INCLINATION":51.8781,"RA_OF_ASC_NODE":63.6978,"ARG_OF_PERICENTER":50.5695,"MEAN_ANOMALY":309.549,"EPHEMERIS_TYPE":0,"CLASSIFICATION_TYPE":"U","NORAD_CAT_ID":67135,"ELEMENT_SET_NO":999,"REV_AT_EPOCH":1385,"BSTAR":0.00066732304,"MEAN_MOTION_DOT":0.00019968,"MEAN_MOTION_DDOT":0}]
