STARLINK-31579          
1 59267U 24050P   26068.59996892 -.00000505  00000+0 -49165-5 0  9990
2 59267  53.1605 181.4925 0001119  76.2634 283.8492 15.30195118110531
KUIPER-00175            
1 67135U 25301C   26068.97960463  .00019968  00000+0  66732-3 0  9998
2 67135  51.8781  63.6978 0002279  50.5695 309.5490 15.30996371 13854
